{
  "58374": {
    "noradId": "58374",
    "tle": [
      "1 58374C 23178A   25323.84076389  .00013349  00000+0  44978-3 0  3233",
      "2 58374  53.1564 151.1433 0001310  91.2409 330.7951 15.30188123    12"
    ]
  },
  "58375": {
    "noradId": "58375",
    "tle": [
      "1 58375C 23178B   25323.84076389 -.00004106  00000+0 -13848-3 0  3239",
      "2 58375  53.1574 151.2644 0001697  95.2832 268.7244 15.30170551    12"
    ]
  },
  "58376": {
    "noradId": "58376",
    "tle": [
      "1 58376C 23178C   25323.84145833 -.00004772  00000+0 -16084-3 0  3235",
      "2 58376  53.1578 151.2964 0001198  85.8156 264.5628 15.30197409    13"
    ]
  },
  "58377": {
    "noradId": "58377",
    "tle": [
      "1 58377C 23178D   25323.84006944 -.00003104  00000+0 -10463-3 0  3238",
      "2 58377  53.1566 151.1608 0001289  90.4371 316.2776 15.30194606    12"
    ]
  },
  "58378": {
    "noradId": "58378",
    "tle": [
      "1 58378C 23178E   25323.82895833 -.00021416  00000+0 -72161-3 0  3239",
      "2 58378  53.1564 138.8002 0001286  88.1511  91.6401 15.30221833    10"
    ]
  },
  "58379": {
    "noradId": "58379",
    "tle": [
      "1 58379C 23178F   25323.83798611  .00003557  00000+0  11990-3 0  3234",
      "2 58379  53.1582 151.3449 0001305  90.8844 222.9160 15.30181808    15"
    ]
  },
  "58380": {
    "noradId": "58380",
    "tle": [
      "1 58380C 23178G   25323.83937500  .00015717  00000+0  52966-3 0  3237",
      "2 58380  53.1598  61.5815 0001217  86.5180  59.0612 15.30179471    14"
    ]
  },
  "58381": {
    "noradId": "58381",
    "tle": [
      "1 58381C 23178H   25323.83798611  .00005462  00000+0  18413-3 0  3231",
      "2 58381  53.1588 151.4045 0001349  85.0765 176.4161 15.30180969    14"
    ]
  },
  "58382": {
    "noradId": "58382",
    "tle": [
      "1 58382C 23178J   25323.83937500  .00016152  00000+0  54468-3 0  3232",
      "2 58382  53.1575 151.5893 0001330  96.8831  96.5760 15.30158783    13"
    ]
  },
  "58383": {
    "noradId": "58383",
    "tle": [
      "1 58383C 23178K   25323.84284722 -.00005105  00000+0 -17206-3 0  3232",
      "2 58383  53.1587 151.3923 0001499  85.5135 220.1725 15.30197107    16"
    ]
  },
  "58384": {
    "noradId": "58384",
    "tle": [
      "1 58384C 23178L   25323.84145833 -.00005597  00000+0 -18864-3 0  3238",
      "2 58384  53.1569 151.1964 0001361  87.1079 298.1945 15.30198592    11"
    ]
  },
  "58385": {
    "noradId": "58385",
    "tle": [
      "1 58385C 23178M   25323.84493056  .00002133  00000+0  71899-4 0  3231",
      "2 58385  53.1565 151.0872 0001294  90.4942  12.0937 15.30188811    13"
    ]
  },
  "58386": {
    "noradId": "58386",
    "tle": [
      "1 58386C 23178N   25323.84354167  .00003576  00000+0  12052-3 0  3238",
      "2 58386  53.1566 151.5694 0001246  91.5609  20.3700 15.30188306    10"
    ]
  },
  "58387": {
    "noradId": "58387",
    "tle": [
      "1 58387C 23178P   25323.83798611 -.00004806  00000+0 -16189-3 0  3238",
      "2 58387  53.1568 151.5696 0001459  86.9615  46.5676 15.30214859    11"
    ]
  },
  "58388": {
    "noradId": "58388",
    "tle": [
      "1 58388C 23178Q   25323.84145833 -.00021747  00000+0 -73267-3 0  3235",
      "2 58388  53.1579 151.5347 0001054  65.1297 163.0571 15.30226126    12"
    ]
  },
  "58389": {
    "noradId": "58389",
    "tle": [
      "1 58389C 23178R   25323.84284722 -.00005081  00000+0 -17121-3 0  3237",
      "2 58389  53.1578 151.5498 0001510  78.7989 145.4388 15.30203267    15"
    ]
  },
  "58390": {
    "noradId": "58390",
    "tle": [
      "1 58390C 23178S   25323.84145833  .00004078  00000+0  13744-3 0  3238",
      "2 58390  53.1586 151.4669 0001368  81.1605 181.9749 15.30186975    11"
    ]
  },
  "58391": {
    "noradId": "58391",
    "tle": [
      "1 58391C 23178T   25323.83798611  .00003225  00000+0  10872-3 0  3238",
      "2 58391  53.1571 151.5277 0001249  92.0733  76.4080 15.30184041    11"
    ]
  },
  "58393": {
    "noradId": "58393",
    "tle": [
      "1 58393C 23178V   25323.84006944 -.00002635  00000+0 -88787-4 0  3239",
      "2 58393  53.1585 151.3671 0001294  80.7747 227.0422 15.30198948    18"
    ]
  },
  "58394": {
    "noradId": "58394",
    "tle": [
      "1 58394C 23178W   25323.84493056 -.00000430  00000+0 -14488-4 0  3232",
      "2 58394  53.1568 151.5585 0001271  95.0909  41.9160 15.30193014    11"
    ]
  },
  "58395": {
    "noradId": "58395",
    "tle": [
      "1 58395C 23178X   25323.84145833  .00015747  00000+0  53079-3 0  3233",
      "2 58395  53.1583 151.5747 0001484  73.1821 172.3620 15.30171944    13"
    ]
  },
  "58402": {
    "noradId": "58402",
    "tle": [
      "1 58402C 23180A   25323.84006944  .00014548  00000+0  10735-2 0  3233",
      "2 58402  43.0033 292.6221 0001084 256.5098 128.5646 15.02519353    13"
    ]
  },
  "58403": {
    "noradId": "58403",
    "tle": [
      "1 58403C 23180B   25323.84145833  .00013151  00000+0  97053-3 0  3233",
      "2 58403  43.0032 293.3482 0001124 265.4750 180.5723 15.02516881    16"
    ]
  },
  "58404": {
    "noradId": "58404",
    "tle": [
      "1 58404C 23180C   25323.84354167  .00014273  00000+0  10530-2 0  3236",
      "2 58404  43.0032 293.2928 0001124 265.3552 209.9825 15.02526710    11"
    ]
  },
  "58405": {
    "noradId": "58405",
    "tle": [
      "1 58405C 23180D   25323.84284722 -.00000981  00000+0 -72382-4 0  3234",
      "2 58405  43.0032 293.2524 0001253 271.3182 218.3018 15.02537219    17"
    ]
  },
  "58406": {
    "noradId": "58406",
    "tle": [
      "1 58406C 23180E   25323.84354167  .00011221  00000+0  82831-3 0  3232",
      "2 58406  43.0031 293.2059 0001412 272.3132 239.1095 15.02507028    14"
    ]
  },
  "58407": {
    "noradId": "58407",
    "tle": [
      "1 58407C 23180F   25323.83798611 -.00006949  00000+0 -51279-3 0  3233",
      "2 58407  43.0032 292.5882 0000864 265.2268 126.5853 15.02540600    17"
    ]
  },
  "58408": {
    "noradId": "58408",
    "tle": [
      "1 58408C 23180G   25323.84284722  .00015329  00000+0  11311-2 0  3230",
      "2 58408  43.0032 293.3440 0001225 266.8201 114.7412 15.02520820    15"
    ]
  },
  "58409": {
    "noradId": "58409",
    "tle": [
      "1 58409C 23180H   25323.84354167 -.00011142  00000+0 -42442-3 0  3233",
      "2 58409  43.0000 167.7054 0001834 276.5992  76.9589 15.25927660    19"
    ]
  },
  "58410": {
    "noradId": "58410",
    "tle": [
      "1 58410C 23180J   25323.84284722 -.00007581  00000+0 -27467-3 0  3236",
      "2 58410  42.9989 167.1006 0001337 266.6012 328.8269 15.27576386    18"
    ]
  },
  "58411": {
    "noradId": "58411",
    "tle": [
      "1 58411C 23180K   25323.83798611 -.00009394  00000+0 -69312-3 0  3232",
      "2 58411  43.0034 291.8184 0001331 269.5166  57.5321 15.02545394    13"
    ]
  },
  "58412": {
    "noradId": "58412",
    "tle": [
      "1 58412C 23180L   25323.84423611  .00000105  00000+0  38128-5 0  3231",
      "2 58412  43.0009 167.5714 0001637 268.8166 129.0968 15.27573349    15"
    ]
  },
  "58413": {
    "noradId": "58413",
    "tle": [
      "1 58413C 23180M   25323.83798611 -.00003399  00000+0 -25083-3 0  3230",
      "2 58413  43.0034 280.4981 0001152 268.4275 163.2993 15.02539293    15"
    ]
  },
  "58414": {
    "noradId": "58414",
    "tle": [
      "1 58414C 23180N   25323.83104167  .00032197  00000+0  23764-2 0  3237",
      "2 58414  43.0035 293.0011 0001838 280.2752 271.5772 15.02491993    16"
    ]
  },
  "58415": {
    "noradId": "58415",
    "tle": [
      "1 58415C 23180P   25323.84076389  .00014855  00000+0  10961-2 0  3239",
      "2 58415  43.0034 292.9777 0001432 261.4820 324.9577 15.02521646    15"
    ]
  },
  "58416": {
    "noradId": "58416",
    "tle": [
      "1 58416C 23180Q   25323.84145833  .00013893  00000+0  10251-2 0  3234",
      "2 58416  43.0033 293.0298 0001444 264.4815 307.8066 15.02522369    11"
    ]
  },
  "58417": {
    "noradId": "58417",
    "tle": [
      "1 58417C 23180R   25323.83173611  .00004028  00000+0  29721-3 0  3232",
      "2 58417  43.0033 292.7393 0001183 278.0353  25.8387 15.02531333    16"
    ]
  },
  "58418": {
    "noradId": "58418",
    "tle": [
      "1 58418C 23180S   25323.83937500  .00006386  00000+0  47124-3 0  3234",
      "2 58418  43.0033 292.8826 0001284 270.5965   2.5054 15.02528366    12"
    ]
  },
  "58419": {
    "noradId": "58419",
    "tle": [
      "1 58419C 23180T   25323.83868056 -.00033851  00000+0 -12267-2 0  3232",
      "2 58419  42.9992 204.1336 0001399 268.6714 194.1019 15.27596676    19"
    ]
  },
  "58420": {
    "noradId": "58420",
    "tle": [
      "1 58420C 23180U   25323.84076389  .00014082  00000+0  10392-2 0  3235",
      "2 58420  43.0033 292.7892 0001421 261.7569  54.9550 15.02517673    13"
    ]
  },
  "58421": {
    "noradId": "58421",
    "tle": [
      "1 58421C 23180V   25323.84423611 -.00007314  00000+0 -53968-3 0  3239",
      "2 58421  43.0037 292.5110 0001150 268.3392 175.3393 15.02543563    15"
    ]
  },
  "58422": {
    "noradId": "58422",
    "tle": [
      "1 58422C 23180W   25323.82409722  .00037136  00000+0  13451-2 0  3230",
      "2 58422  42.9986 170.7608 0001287 261.9093 155.0892 15.27540718    19"
    ]
  },
  "58423": {
    "noradId": "58423",
    "tle": [
      "1 58423C 23180X   25323.84493056  .00015312  00000+0  11297-2 0  3234",
      "2 58423  43.0031 292.8441 0001393 261.1660  24.0333 15.02523243    16"
    ]
  },
  "58424": {
    "noradId": "58424",
    "tle": [
      "1 58424C 23180Y   25323.84006944  .00004076  00000+0  30076-3 0  3233",
      "2 58424  43.0032 291.7420 0001229 272.4031  83.9712 15.02533032    10"
    ]
  },
  "58437": {
    "noradId": "58437",
    "tle": [
      "1 58437C 23183A   25323.83868056  .00014866  00000+0  10969-2 0  3235",
      "2 58437  43.0030 280.3294 0001175 268.7228 268.9183 15.02520102    12"
    ]
  }
}